ONEWEB-0201             
1 48241U 21031AH  21268.08479309  .00000267  00000-0  68617-3 0  9991
2 48241  87.8984 272.7993 0001922  89.5534 270.5816 13.14498837 21619
ONEWEB-0207             
1 48242U 21031AJ  21268.05943654  .00000006  00000-0 -18623-4 0  9993
2 48242  87.9001 272.8059 0002205  81.3144 278.8235 13.14500511 21526
ONEWEB-0208             
1 48243U 21031AK  21268.03615877 -.00001293  00000-0 -35222-2 0  9997
2 48243  87.8972 272.8040 0002166 107.9828 252.1538 13.14507698 21538
ONEWEB-0200             
1 48244U 21031AL  21268.07631056  .00000204  00000-0  51638-3 0  9998
2 48244  87.8961 272.7765 0002047 109.1752 250.9600 13.14464715 21468
ONEWEB-0217             
1 48245U 21031AM  21268.24547000  .00000194  00000-0  48946-3 0  9999
2 48245  87.9006 272.7595 0002347 109.4532 250.6851 13.14475818 21431
ONEWEB-0211             
1 48767U 21045A   21268.58334491 -.00042689  00000-0 -10406+0 0  9991
2 48767  87.9326 242.2514 0001467  93.7633 211.3475 13.21710845 18653
ONEWEB-0223             
1 48768U 21045B   21268.58334491 -.00043430  00000-0 -95719-1 0  9999
2 48768  87.9567 242.2618 0002126 111.3925 178.1060 13.28462698 18646
ONEWEB-0230             
1 48769U 21045C   21268.58334491 -.00045539  00000-0 -98642-1 0  9990
2 48769  87.9614 242.2112 0004826 195.4536 325.3283 13.29625217 18876
ONEWEB-0237             
1 48770U 21045D   21268.25002315  .00028045  00000-0  60453-1 0  9993
2 48770  87.9524 241.9082 0001408  97.1253 178.1938 13.29354117  3353
ONEWEB-0235             
1 48771U 21045E   21268.58334491  .00000013  00000-0  00000+0 0  9998
2 48771  87.9801 242.0981 0001193 126.9070   0.4287 13.34544366 18590
ONEWEB-0242             
1 48772U 21045F   21268.50002315  .00000013  00000-0  00000+0 0  9998
2 48772  87.9412 242.2884 0001011  96.0318  20.2819 13.25812597 18656
ONEWEB-0241             
1 48773U 21045G   21268.58334491 -.00042119  00000-0 -11233+0 0  9995
2 48773  87.9116 242.3023 0001718 103.2813 226.2060 13.15608876 18578
ONEWEB-0243             
1 48774U 21045H   21268.58334491 -.00045576  00000-0 -97365-1 0  9998
2 48774  87.9472 242.0329 0001609  95.7961  35.4924 13.30545933 18590
ONEWEB-0222             
1 48775U 21045J   21268.58334491 -.00043426  00000-0 -95464-1 0  9999
2 48775  87.9575 242.1882 0001551  87.1117 199.5118 13.28633088 18632
ONEWEB-0244             
1 48776U 21045K   21268.58334491 -.00296398  00000-0 -18664+0 0  9993
2 48776  88.0972 241.5149 0004846 200.8467 267.2997 14.06515991 18960
ONEWEB-0247             
1 48777U 21045L   21268.36512543 -.00020277  00000-0 -43810-1 0  9990
2 48777  87.9706 242.2947 0003543 218.9776 141.1107 13.29630801 18611
ONEWEB-0245             
1 48778U 21045M   21268.25002315  .00028312  00000-0  63323-1 0  9997
2 48778  87.9820 242.1351 0001415  96.2814 208.2185 13.26899824  3369
ONEWEB-0229             
1 48779U 21045N   21268.58334491 -.00044538  00000-0 -93394-1 0  9998
2 48779  87.9446 241.9197 0001515  89.9376 141.8286 13.31770014 18637
ONEWEB-0228             
1 48780U 21045P   21268.58334491 -.00044873  00000-0 -10441+0 0  9992
2 48780  87.9436 242.1792 0001908 100.7160  94.7623 13.24853476 18560
ONEWEB-0232             
1 48781U 21045Q   21268.58334491  .00000013  00000-0  00000+0 0  9999
2 48781  87.9530 242.2947 0001311  98.2577 266.7032 13.28101430 18879
ONEWEB-0231             
1 48782U 21045R   21268.58334491 -.00043321  00000-0 -96196-1 0  9994
2 48782  87.9539 242.2308 0001261 110.6193 246.1164 13.27963741 18594
ONEWEB-0234             
1 48783U 21045S   21268.58334491 -.00043764  00000-0 -98021-1 0  9995
2 48783  87.9540 242.2371 0001211  99.2164 162.1024 13.27393585 18711
ONEWEB-0238             
1 48784U 21045T   21268.58334491 -.00045324  00000-0 -10001+0 0  9990
2 48784  87.9559 242.1995 0000851 158.1763 321.3399 13.28397702 18611
ONEWEB-0240             
1 48785U 21045U   21268.25002315  .00029847  00000-0  72178-1 0  9997
2 48785  87.9309 242.2770 0001508  97.2896  19.3705 13.21660399  3355
ONEWEB-0246             
1 48786U 21045V   21268.58334491 -.00044439  00000-0 -10260+0 0  9995
2 48786  87.9456 242.2923 0001641  90.1349 343.7443 13.25371068 18504
ONEWEB-0210             
1 48787U 21045W   21268.58334491  .00000013  00000-0  00000+0 0  9995
2 48787  87.9183 242.3236 0001686  88.8159  73.3374 13.19561849 18557
ONEWEB-0214             
1 48788U 21045X   21268.58334491 -.00045130  00000-0 -10689+0 0  9991
2 48788  87.9419 242.2829 0001347 115.7286   6.5846 13.23664223 18515
ONEWEB-0221             
1 48789U 21045Y   21268.58334491  .00000013  00000-0  00000+0 0  9997
2 48789  87.9083 242.2826 0001648  97.3168 314.5409 13.16010012 18631
ONEWEB-0213             
1 48790U 21045Z   21268.25002315  .00024574  00000-0  53705-1 0  9990
2 48790  87.9577 242.2099 0001667 140.0762  14.2096 13.28463015  3357
ONEWEB-0212             
1 48791U 21045AA  21268.58334491  .00000013  00000-0  00000+0 0  9990
2 48791  87.9466 242.1710 0001345  79.0615 316.1324 13.26002088 18682
ONEWEB-0227             
1 48792U 21045AB  21268.58334491 -.00045301  00000-0 -99660-1 0  9994
2 48792  87.9591 241.9381 0001684  99.7615  77.7977 13.28597713 18611
ONEWEB-0226             
1 48793U 21045AC  21268.25002315  .00030606  00000-0  62779-1 0  9997
2 48793  87.9397 242.1804 0001224  82.8227   6.2286 13.32618009 18539
ONEWEB-0224             
1 48794U 21045AD  21268.58334491  .00000013  00000-0  00000+0 0  9993
2 48794  87.9204 242.2949 0001399 118.4344 269.6793 13.18714001 18516
ONEWEB-0233             
1 48795U 21045AE  21268.58334491  .00000013  00000-0  00000+0 0  9994
2 48795  87.9094 242.1336 0001800 107.9305 172.1063 13.16997859 18510
ONEWEB-0190             
1 48796U 21045AF  21268.58334491 -.00045836  00000-0 -10056+0 0  9991
2 48796  87.9566 242.1067 0001251 247.5847 322.6077 13.28784095 18581
ONEWEB-0236             
1 48797U 21045AG  21268.25002315  .00027666  00000-0  73096-1 0  9997
2 48797  87.9108 242.3693 0001856 100.8330  99.6921 13.15678231 18444
ONEWEB-0248             
1 48798U 21045AH  21268.58334491 -.00043409  00000-0 -95115-1 0  9998
2 48798  87.9552 242.2733 0001027 150.7564 204.6893 13.28850548 18640
ONEWEB-0225             
1 48799U 21045AJ  21268.58334491 -.00045132  00000-0 -10409+0 0  9995
2 48799  87.9377 242.2299 0001266 109.2028  73.0197 13.25445628 18665
ONEWEB-0215             
1 48800U 21045AK  21268.58334491 -.00044114  00000-0 -10235+0 0  9994
2 48800  87.9457 242.3022 0000781 168.8659 248.4900 13.25039839 18522
ONEWEB-0216             
1 48801U 21045AL  21268.25002315  .00029009  00000-0  62956-1 0  9999
2 48801  87.9536 242.2589 0001559  91.0741  55.1761 13.28899767  3339
ONEWEB-0239             
1 48802U 21045AM  21268.25002315  .00030216  00000-0  65774-1 0  9993
2 48802  87.9556 242.2960 0001238 130.5548 328.5776 13.28689943 18548
ONEWEB-0249             
1 48967U 21060A   21268.58334491  .00000014  00000-0  00000+0 0  9993
2 48967  87.8766 212.0174 0008547  11.9234 159.2381 13.43488761 13805
ONEWEB-0250             
1 48968U 21060B   21268.58334491  .00000014  00000-0  00000+0 0  9994
2 48968  87.9251 212.0257 0007193 348.5387  94.5938 13.44881552 13795
ONEWEB-0251             
1 48969U 21060C   21268.58334491 -.00002768  00000-0 -88290-4 0  9997
2 48969  87.4242 207.1874 0008652 337.2420 351.1719 15.33020291 14475
ONEWEB-0252             
1 48970U 21060D   21268.58334491  .00000014  00000-0  00000+0 0  9997
2 48970  87.8940 212.0634 0010787 353.1007 285.6827 13.47098933 13847
ONEWEB-0253             
1 48971U 21060E   21268.58334491  .00000014  00000-0  00000+0 0  9998
2 48971  87.9092 212.1010 0007058 345.9945 345.8266 13.41899726 13785
ONEWEB-0254             
1 48972U 21060F   21268.58334491  .00000014  00000-0  00000+0 0  9999
2 48972  87.8955 212.0187 0010537 352.8176 321.4235 13.43444738 13783
ONEWEB-0255             
1 48973U 21060G   21268.58334491  .00000014  00000-0  00000+0 0  9990
2 48973  87.8931 212.0467 0006405 356.7292 161.9979 13.46836034 13857
ONEWEB-0256             
1 48974U 21060H   21268.58334491  .00000014  00000-0  00000+0 0  9991
2 48974  87.8901 212.0539 0012478 352.0092  55.6858 13.45532561 13828
ONEWEB-0257             
1 48975U 21060J   21268.58334491  .00000014  00000-0  00000+0 0  9992
2 48975  87.9175 212.0598 0009202 345.1469 116.1223 13.39338967 13781
ONEWEB-0258             
1 48976U 21060K   21268.58334491  .00000014  00000-0  00000+0 0  9993
2 48976  87.9269 212.0345 0007669 355.3579 269.2454 13.44714610 13770
ONEWEB-0259             
1 48977U 21060L   21268.58334491  .00000014  00000-0  00000+0 0  9994
2 48977  87.8882 212.0361 0011600 357.1016 287.8060 13.44001149 13815
ONEWEB-0260             
1 48978U 21060M   21268.58334491  .00000014  00000-0  00000+0 0  9995
2 48978  87.8921 212.0580 0006596 336.3811 304.4421 13.46144186 13787
ONEWEB-0261             
1 48979U 21060N   21268.58334491  .00000014  00000-0  00000+0 0  9996
2 48979  87.8965 212.0547 0011448 349.9553  54.8121 13.48091034 13861
ONEWEB-0262             
1 48980U 21060P   21268.58334491  .00000014  00000-0  00000+0 0  9998
2 48980  87.8852 211.9958 0010029 355.6101  71.8577 13.48894132 13829
ONEWEB-0263             
1 48981U 21060Q   21268.58334491  .00000014  00000-0  00000+0 0  9999
2 48981  87.8895 211.9669 0009034 346.1037  55.7138 13.45145845 13790
ONEWEB-0264             
1 48982U 21060R   21268.58334491  .00000014  00000-0  00000+0 0  9990
2 48982  87.8653 211.9150 0010767   7.5952  46.6288 13.51940077 13788
ONEWEB-0265             
1 48983U 21060S   21268.58334491 -.00000381  00000-0 -10241-4 0  9993
2 48983  87.4033 206.7519 0004855 336.4159  69.5878 15.41488137 14530
ONEWEB-0266             
1 48984U 21060T   21268.58334491  .00000014  00000-0  00000+0 0  9992
2 48984  87.8786 212.0099 0012349 357.2597 122.2758 13.43686014 13781
